[{"OBJECT_NAME":"STARLINK-36131","OBJECT_ID":"2025-294C","EPOCH":"2026-03-09T23:00:30.180096","MEAN_MOTION":15.27587084,"ECCENTRICITY":0.00013291,"INCLINATION":43.0026,"RA_OF_ASC_NODE":36.2761,"ARG_OF_PERICENTER":252.9195,"MEAN_ANOMALY":107.1511,"EPHEMERIS_TYPE":0,"CLASSIFICATION_TYPE":"U","NORAD_CAT_ID":67032,"ELEMENT_SET_NO":999,"REV_AT_EPOCH":1484,"BSTAR":0.0010697322,"MEAN_MOTION_DOT":0.00029298,"MEAN_MOTION_DDOT":0},{"OBJECT_NAME":"SIMSAT 2","OBJECT_ID":"2000-026B","EPOCH":"2026-03-09T20:25:01.673184","MEAN_MOTION":15.29036787,"ECCENTRICITY":0.00037035,"INCLINATION":86.3514,"RA_OF_ASC_NODE":176.4271,"ARG_OF_PERICENTER":287.9875,"MEAN_ANOMALY":72.0969,"EPHEMERIS_TYPE":0,"CLASSIFICATION_TYPE":"U","NORAD_CAT_ID":26366,"ELEMENT_SET_NO":999,"REV_AT_EPOCH":42803,"BSTAR":0.00013465771,"MEAN_MOTION_DOT":3.833e-5,"MEAN_MOTION_DDOT":0}]
